TEVEL2-3                
1 63218U 25052J   26068.64540225  .00020365  00000+0  69446-3 0  9991
2 63218  97.3994 324.7775 0004761 105.7353 254.4413 15.30377031 54855
STARLINK-33942          
1 63974U 25099Y   26068.29327960  .00029327  00000+0  10712-2 0  9999
2 63974  42.9980 175.1620 0001354 257.2430 102.8270 15.27573374 47310
